EUTELSAT QUANTUM        
1 49056U 21069B   25309.04474799  .00000138  00000+0  00000+0 0  9995
2 49056   0.0456  67.9230 0003239 176.3690 224.0828  1.00272897 15689
EUTELSAT KONNECT VHTS   
1 53765U 22110A   25309.17847535  .00000029  00000+0  00000+0 0  9990
2 53765   0.0575  92.4439 0002727 114.5297 264.6500  1.00269495  4589
EUTELSAT HOTBIRD 13F    
1 54048U 22134A   25308.11032301  .00000100  00000+0  00000+0 0  9991
2 54048   0.0573 283.9801 0002090  75.1501  97.2142  1.00269479 11127
EUTELSAT HOTBIRD 13G    
1 54225U 22146A   25308.11032301  .00000100  00000+0  00000+0 0  9991
2 54225   0.0484 241.3081 0001969 299.2062 275.8127  1.00270282  5201
EUTELSAT 10B            
1 54259U 22157A   25309.17994869  .00000080  00000+0  00000+0 0  9990
2 54259   0.0586  90.5384 0001337  63.1711 325.7677  1.00268200 10780
EUTELSAT 36D            
1 59346U 24059A   25309.04240797  .00000000  00000+0  00000+0 0  9997
2 59346   0.0173 270.9054 0000591  22.9870 161.7538  1.00271149  5900
